ONEWEB-0539             
1 54644U 22166C   23059.58334491 -.00989047  00000+0 -68921+0 0  9999
2 54644  87.1790 125.7339 0008608 339.2350  34.0625 14.01924094  1302
ONEWEB-0539             
1 54644U 22166C   23059.91667824 -.01046833  00000+0 -74117+0 0  9997
2 54644  87.1856 125.6316 0008338 339.3494 274.8033 14.01223045  1304
ONEWEB-0539             
1 54644U 22166C   23060.25001157 -.01070905  00000+0 -76884+0 0  9997
2 54644  87.1918 125.5281 0008482 338.4217 155.7055 14.00518514 12766
ONEWEB-0539             
1 54644U 22166C   23060.91667824 -.01045918  00000+0 -76971+0 0  9992
2 54644  87.2050 125.3232 0008211 336.2637 275.2371 13.99039838 12864
ONEWEB-0539             
1 54644U 22166C   23061.00001157 -.01002866  00000+0 -73883+0 0  9998
2 54644  87.2065 125.2976 0008238 334.9390 335.9926 13.98835899  1301
ONEWEB-0539             
1 54644U 22166C   23061.83334491 -.01085294  00000+0 -82885+0 0  9997
2 54644  87.2226 125.0429 0008173 334.1482 208.0270 13.97066565  1300
ONEWEB-0539             
1 54644U 22166C   23062.41667824 -.01049613  00000+0 -81830+0 0  9995
2 54644  87.2337 124.8656 0008077 330.8681 261.9597 13.95773519 13078
ONEWEB-0539             
1 54644U 22166C   23062.58334491 -.00994629  00000+0 -77821+0 0  9994
2 54644  87.2369 124.8151 0008235 329.5228  20.1454 13.95387145  1307
ONEWEB-0539             
1 54644U 22166C   23062.91667824 -.01040674  00000+0 -82659+0 0  9998
2 54644  87.2434 124.7158 0008011 329.8297 252.8587 13.94678823  1303
